
# Worst residual: 72.20 km
# MJD 60660.000000 (2024 Dec 16  0:00)
2022-157B = NORAD 54260 = Falcon 9-187 Stage 2
1 54260U 22157B   24351.49919926  .00000000  00000-0  00000-0 0 25626
2 54260 020.1600 130.2500 7921405 108.5199 059.3108 01.56017961    02

# Worst residual: 33.15 km
# MJD 60661.000000 (2024 Dec 17  0:00)
2022-157B = NORAD 54260 = Falcon 9-187 Stage 2
1 54260U 22157B   24352.49919926  .00000000  00000-0  00000-0 0 25627
2 54260 020.1656 129.9535 7918451 109.0086 261.4995 01.56267259    01

# Worst residual: 38.91 km
# MJD 60662.000000 (2024 Dec 18  0:00)
2022-157B = NORAD 54260 = Falcon 9-187 Stage 2
1 54260U 22157B   24353.49919926  .00000000  00000-0  00000-0 0 25628
2 54260 020.1703 129.6624 7916159 109.4998 104.6842 01.56590380    02

# Worst residual: 30.46 km
# MJD 60663.000000 (2024 Dec 19  0:00)
2022-157B = NORAD 54260 = Falcon 9-187 Stage 2
1 54260U 22157B   24354.49919926  .00000000  00000-0  00000-0 0 25629
2 54260 020.1751 129.3624 7914787 110.0078 308.6975 01.56751362    06

# Worst residual: 16.07 km
# MJD 60664.000000 (2024 Dec 20  0:00)
2022-157B = NORAD 54260 = Falcon 9-187 Stage 2
1 54260U 22157B   24355.49919926  .00000000  00000-0  00000-0 0 25620
2 54260 020.1763 129.0872 7912171 110.4784 153.5589 01.57013142    00

# Worst residual: 38.03 km
# MJD 60665.000000 (2024 Dec 21  0:00)
2022-157B = NORAD 54260 = Falcon 9-187 Stage 2
1 54260U 22157B   24356.49919926  .00000000  00000-0  00000-0 0 25621
2 54260 020.1784 128.7986 7911235 110.9870 359.1334 01.57201881    07

# Worst residual: 21.25 km
# MJD 60666.000000 (2024 Dec 22  0:00)
2022-157B = NORAD 54260 = Falcon 9-187 Stage 2
1 54260U 22157B   24357.49919926  .00000000  00000-0  00000-0 0 25622
2 54260 020.1841 128.5106 7908737 111.4699 205.5736 01.57438001    07

# Worst residual: 49.51 km
# MJD 60667.000000 (2024 Dec 23  0:00)
2022-157B = NORAD 54260 = Falcon 9-187 Stage 2
1 54260U 22157B   24358.49919926  .00000000  00000-0  00000-0 0 25623
2 54260 020.1831 128.2373 7906992 111.9600 052.8013 01.57707841    09

# Worst residual: 33.99 km
# MJD 60668.000000 (2024 Dec 24  0:00)
2022-157B = NORAD 54260 = Falcon 9-187 Stage 2
1 54260U 22157B   24359.49919926  .00000000  00000-0  00000-0 0 25624
2 54260 020.1904 127.9322 7904381 112.4689 260.9755 01.57917932    02

# Worst residual: 43.93 km
# MJD 60669.000000 (2024 Dec 25  0:00)
2022-157B = NORAD 54260 = Falcon 9-187 Stage 2
1 54260U 22157B   24360.49919926  .00000000  00000-0  00000-0 0 25626
2 54260 020.1896 127.6675 7902052 112.9395 110.1263 01.58267246    09

# Worst residual: 38.93 km
# MJD 60670.000000 (2024 Dec 26  0:00)
2022-157B = NORAD 54260 = Falcon 9-187 Stage 2
1 54260U 22157B   24361.49919926  .00000000  00000-0  00000-0 0 25627
2 54260 020.1974 127.3505 7899573 113.4724 320.2631 01.58473743    04

# Worst residual: 16.33 km
# MJD 60671.000000 (2024 Dec 27  0:00)
2022-157B = NORAD 54260 = Falcon 9-187 Stage 2
1 54260U 22157B   24362.49919926  .00000000  00000-0  00000-0 0 25628
2 54260 020.1999 127.0679 7896546 113.9507 171.5150 01.58819987    08

# Worst residual: 44.40 km
# MJD 60672.000000 (2024 Dec 28  0:00)
2022-157B = NORAD 54260 = Falcon 9-187 Stage 2
1 54260U 22157B   24363.49919926  .00000000  00000-0  00000-0 0 25629
2 54260 020.2025 126.7903 7894434 114.4521 023.6950 01.59072334    04

# Worst residual: 24.52 km
# MJD 60673.000000 (2024 Dec 29  0:00)
2022-157B = NORAD 54260 = Falcon 9-187 Stage 2
1 54260U 22157B   24364.49919926  .00000000  00000-0  00000-0 0 25620
2 54260 020.2067 126.5046 7892270 114.9351 236.8680 01.59305123    01

# Worst residual: 34.90 km
# MJD 60674.000000 (2024 Dec 30  0:00)
2022-157B = NORAD 54260 = Falcon 9-187 Stage 2
1 54260U 22157B   24365.49919926  .00000000  00000-0  00000-0 0 25621
2 54260 020.2082 126.2201 7890303 115.4299 090.7947 01.59547429    00

# Worst residual: 19.74 km
# MJD 60675.000000 (2024 Dec 31  0:00)
2022-157B = NORAD 54260 = Falcon 9-187 Stage 2
1 54260U 22157B   24366.49919926  .00000000  00000-0  00000-0 0 25622
2 54260 020.2143 125.9108 7888969 115.9500 305.3840 01.59667155    01

# Worst residual: 10.38 km
# MJD 60676.000000 (2025 Jan  1  0:00)
2022-157B = NORAD 54260 = Falcon 9-187 Stage 2
1 54260U 22157B   25001.49919926  .00000000  00000-0  00000-0 0 25629
2 54260 020.2193 125.6277 7887121 116.4336 160.5525 01.59835717    04

# Worst residual: 24.47 km
# MJD 60677.000000 (2025 Jan  2  0:00)
2022-157B = NORAD 54260 = Falcon 9-187 Stage 2
1 54260U 22157B   25002.49919926  .00000000  00000-0  00000-0 0 25620
2 54260 020.2215 125.3353 7886398 116.9443 016.1400 01.59945978    09

# Worst residual: 16.01 km
# MJD 60678.000000 (2025 Jan  3  0:00)
2022-157B = NORAD 54260 = Falcon 9-187 Stage 2
1 54260U 22157B   25003.49919926  .00000000  00000-0  00000-0 0 25621
2 54260 020.2267 125.0475 7885226 117.4345 232.1701 01.60047492    04
